[{"OBJECT_NAME":"2022-098K","OBJECT_ID":"2022-098K","EPOCH":"2022-08-29T13:20:31.937280","MEAN_MOTION":15.09801783,"ECCENTRICITY":0.0009723,"INCLINATION":97.5338,"RA_OF_ASC_NODE":337.5762,"ARG_OF_PERICENTER":203.0896,"MEAN_ANOMALY":282.7771,"EPHEMERIS_TYPE":0,"CLASSIFICATION_TYPE":"U","NORAD_CAT_ID":53453,"ELEMENT_SET_NO":999,"REV_AT_EPOCH":290,"BSTAR":0.00013643,"MEAN_MOTION_DOT":2.143e-5,"MEAN_MOTION_DDOT":0},{"OBJECT_NAME":"2022-098L","OBJECT_ID":"2022-098L","EPOCH":"2022-08-29T13:17:07.141632","MEAN_MOTION":15.10017019,"ECCENTRICITY":0.0011556,"INCLINATION":97.5288,"RA_OF_ASC_NODE":337.5646,"ARG_OF_PERICENTER":210.2202,"MEAN_ANOMALY":275.8739,"EPHEMERIS_TYPE":0,"CLASSIFICATION_TYPE":"U","NORAD_CAT_ID":53454,"ELEMENT_SET_NO":999,"REV_AT_EPOCH":290,"BSTAR":0.00020414,"MEAN_MOTION_DOT":3.259e-5,"MEAN_MOTION_DDOT":0},{"OBJECT_NAME":"2022-098M","OBJECT_ID":"2022-098M","EPOCH":"2022-08-29T13:16:47.841600","MEAN_MOTION":15.10034897,"ECCENTRICITY":0.0011442,"INCLINATION":97.5306,"RA_OF_ASC_NODE":337.5706,"ARG_OF_PERICENTER":211.5475,"MEAN_ANOMALY":274.5734,"EPHEMERIS_TYPE":0,"CLASSIFICATION_TYPE":"U","NORAD_CAT_ID":53455,"ELEMENT_SET_NO":999,"REV_AT_EPOCH":290,"BSTAR":0.00020287,"MEAN_MOTION_DOT":3.24e-5,"MEAN_MOTION_DDOT":0},{"OBJECT_NAME":"2022-098N","OBJECT_ID":"2022-098N","EPOCH":"2022-08-29T13:16:03.940896","MEAN_MOTION":15.10074692,"ECCENTRICITY":0.0011144,"INCLINATION":97.5275,"RA_OF_ASC_NODE":337.5613,"ARG_OF_PERICENTER":211.6333,"MEAN_ANOMALY":274.4754,"EPHEMERIS_TYPE":0,"CLASSIFICATION_TYPE":"U","NORAD_CAT_ID":53456,"ELEMENT_SET_NO":999,"REV_AT_EPOCH":290,"BSTAR":0.00020283,"MEAN_MOTION_DOT":3.243e-5,"MEAN_MOTION_DDOT":0},{"OBJECT_NAME":"2022-098P","OBJECT_ID":"2022-098P","EPOCH":"2022-08-29T13:13:05.453184","MEAN_MOTION":15.10240497,"ECCENTRICITY":0.0010495,"INCLINATION":97.5285,"RA_OF_ASC_NODE":337.5658,"ARG_OF_PERICENTER":213.7397,"MEAN_ANOMALY":272.6437,"EPHEMERIS_TYPE":0,"CLASSIFICATION_TYPE":"U","NORAD_CAT_ID":53457,"ELEMENT_SET_NO":999,"REV_AT_EPOCH":290,"BSTAR":0.00020148,"MEAN_MOTION_DOT":3.235e-5,"MEAN_MOTION_DDOT":0},{"OBJECT_NAME":"2022-098Q","OBJECT_ID":"2022-098Q","EPOCH":"2022-08-29T13:13:51.893184","MEAN_MOTION":15.10165068,"ECCENTRICITY":0.0010833,"INCLINATION":97.5322,"RA_OF_ASC_NODE":337.5772,"ARG_OF_PERICENTER":214.449,"MEAN_ANOMALY":271.7471,"EPHEMERIS_TYPE":0,"CLASSIFICATION_TYPE":"U","NORAD_CAT_ID":53458,"ELEMENT_SET_NO":999,"REV_AT_EPOCH":290,"BSTAR":9.5698e-6,"MEAN_MOTION_DOT":9.3e-7,"MEAN_MOTION_DDOT":0},{"OBJECT_NAME":"2022-098R","OBJECT_ID":"2022-098R","EPOCH":"2022-08-29T13:12:07.997184","MEAN_MOTION":15.10291153,"ECCENTRICITY":0.0010274,"INCLINATION":97.5301,"RA_OF_ASC_NODE":337.5741,"ARG_OF_PERICENTER":215.0521,"MEAN_ANOMALY":271.245,"EPHEMERIS_TYPE":0,"CLASSIFICATION_TYPE":"U","NORAD_CAT_ID":53459,"ELEMENT_SET_NO":999,"REV_AT_EPOCH":290,"BSTAR":0.00020338,"MEAN_MOTION_DOT":3.27e-5,"MEAN_MOTION_DDOT":0},{"OBJECT_NAME":"HSU-SAT1","OBJECT_ID":"1998-067UB","EPOCH":"2022-08-29T12:57:22.416192","MEAN_MOTION":15.51737912,"ECCENTRICITY":0.0006154,"INCLINATION":51.6419,"RA_OF_ASC_NODE":333.0369,"ARG_OF_PERICENTER":198.7386,"MEAN_ANOMALY":161.3378,"EPHEMERIS_TYPE":0,"CLASSIFICATION_TYPE":"U","NORAD_CAT_ID":53462,"ELEMENT_SET_NO":999,"REV_AT_EPOCH":267,"BSTAR":0.0004256,"MEAN_MOTION_DOT":0.00025471,"MEAN_MOTION_DDOT":0},{"OBJECT_NAME":"FUTABA","OBJECT_ID":"1998-067UC","EPOCH":"2022-08-29T12:55:33.849408","MEAN_MOTION":15.51919682,"ECCENTRICITY":0.0006054,"INCLINATION":51.6419,"RA_OF_ASC_NODE":333.0287,"ARG_OF_PERICENTER":200.1819,"MEAN_ANOMALY":159.8933,"EPHEMERIS_TYPE":0,"CLASSIFICATION_TYPE":"U","NORAD_CAT_ID":53463,"ELEMENT_SET_NO":999,"REV_AT_EPOCH":267,"BSTAR":0.00049422,"MEAN_MOTION_DOT":0.00029866,"MEAN_MOTION_DDOT":0},{"OBJECT_NAME":"TUMNANOSAT","OBJECT_ID":"1998-067UD","EPOCH":"2022-08-29T11:20:58.677504","MEAN_MOTION":15.52096494,"ECCENTRICITY":0.000605,"INCLINATION":51.6417,"RA_OF_ASC_NODE":333.3398,"ARG_OF_PERICENTER":201.2395,"MEAN_ANOMALY":158.8344,"EPHEMERIS_TYPE":0,"CLASSIFICATION_TYPE":"U","NORAD_CAT_ID":53464,"ELEMENT_SET_NO":999,"REV_AT_EPOCH":266,"BSTAR":0.00054588,"MEAN_MOTION_DOT":0.00033264,"MEAN_MOTION_DDOT":0},{"OBJECT_NAME":"STARLINK-4415","OBJECT_ID":"2022-099A","EPOCH":"2022-08-29T16:00:00.999936","MEAN_MOTION":15.69304727,"ECCENTRICITY":0.0001855,"INCLINATION":97.6557,"RA_OF_ASC_NODE":0.4658,"ARG_OF_PERICENTER":61.419,"MEAN_ANOMALY":16.9882,"EPHEMERIS_TYPE":0,"CLASSIFICATION_TYPE":"U","NORAD_CAT_ID":53465,"ELEMENT_SET_NO":999,"REV_AT_EPOCH":288,"BSTAR":-0.011601,"MEAN_MOTION_DOT":-0.01216969,"MEAN_MOTION_DDOT":0},{"OBJECT_NAME":"STARLINK-4398","OBJECT_ID":"2022-099B","EPOCH":"2022-08-29T16:00:00.999936","MEAN_MOTION":15.65560462,"ECCENTRICITY":0.0001818,"INCLINATION":97.656,"RA_OF_ASC_NODE":0.4681,"ARG_OF_PERICENTER":64.8936,"MEAN_ANOMALY":359.111,"EPHEMERIS_TYPE":0,"CLASSIFICATION_TYPE":"U","NORAD_CAT_ID":53466,"ELEMENT_SET_NO":999,"REV_AT_EPOCH":288,"BSTAR":-0.014112,"MEAN_MOTION_DOT":-0.01265357,"MEAN_MOTION_DDOT":0},{"OBJECT_NAME":"STARLINK-4394","OBJECT_ID":"2022-099C","EPOCH":"2022-08-29T16:00:00.999936","MEAN_MOTION":15.6553213,"ECCENTRICITY":0.0001731,"INCLINATION":97.6561,"RA_OF_ASC_NODE":0.4681,"ARG_OF_PERICENTER":68.8375,"MEAN_ANOMALY":355.8277,"EPHEMERIS_TYPE":0,"CLASSIFICATION_TYPE":"U","NORAD_CAT_ID":53467,"ELEMENT_SET_NO":999,"REV_AT_EPOCH":288,"BSTAR":-0.013551,"MEAN_MOTION_DOT":-0.01218748,"MEAN_MOTION_DDOT":0},{"OBJECT_NAME":"STARLINK-4400","OBJECT_ID":"2022-099D","EPOCH":"2022-08-29T14:00:01.000224","MEAN_MOTION":15.65748735,"ECCENTRICITY":0.0001575,"INCLINATION":97.6556,"RA_OF_ASC_NODE":0.3763,"ARG_OF_PERICENTER":86.885,"MEAN_ANOMALY":229.0478,"EPHEMERIS_TYPE":0,"CLASSIFICATION_TYPE":"U","NORAD_CAT_ID":53468,"ELEMENT_SET_NO":999,"REV_AT_EPOCH":130,"BSTAR":-0.013302,"MEAN_MOTION_DOT":-0.012079,"MEAN_MOTION_DDOT":0},{"OBJECT_NAME":"STARLINK-4399","OBJECT_ID":"2022-099E","EPOCH":"2022-08-29T16:00:00.999936","MEAN_MOTION":15.6555638,"ECCENTRICITY":0.0001742,"INCLINATION":97.6559,"RA_OF_ASC_NODE":0.4683,"ARG_OF_PERICENTER":58.451,"MEAN_ANOMALY":8.1412,"EPHEMERIS_TYPE":0,"CLASSIFICATION_TYPE":"U","NORAD_CAT_ID":53469,"ELEMENT_SET_NO":999,"REV_AT_EPOCH":288,"BSTAR":-0.013582,"MEAN_MOTION_DOT":-0.01222336,"MEAN_MOTION_DDOT":0},{"OBJECT_NAME":"STARLINK-4393","OBJECT_ID":"2022-099F","EPOCH":"2022-08-29T16:00:00.999936","MEAN_MOTION":15.65599848,"ECCENTRICITY":0.0001975,"INCLINATION":97.6561,"RA_OF_ASC_NODE":0.468,"ARG_OF_PERICENTER":55.3394,"MEAN_ANOMALY":10.5844,"EPHEMERIS_TYPE":0,"CLASSIFICATION_TYPE":"U","NORAD_CAT_ID":53470,"ELEMENT_SET_NO":999,"REV_AT_EPOCH":288,"BSTAR":-0.014372,"MEAN_MOTION_DOT":-0.01288128,"MEAN_MOTION_DDOT":0},{"OBJECT_NAME":"STARLINK-4316","OBJECT_ID":"2022-099G","EPOCH":"2022-08-29T16:00:00.999936","MEAN_MOTION":15.65574052,"ECCENTRICITY":0.0001853,"INCLINATION":97.656,"RA_OF_ASC_NODE":0.4682,"ARG_OF_PERICENTER":56.0371,"MEAN_ANOMALY":11.8384,"EPHEMERIS_TYPE":0,"CLASSIFICATION_TYPE":"U","NORAD_CAT_ID":53471,"ELEMENT_SET_NO":999,"REV_AT_EPOCH":288,"BSTAR":-0.013623,"MEAN_MOTION_DOT":-0.0122649,"MEAN_MOTION_DDOT":0}]
